STARLINK-6239           
1 56423U 23061BB  23134.25001157  .00071155  00000+0  54252-3 0  9995
2 56423  43.0017  51.5071 0001733 281.5197 187.2482 15.71307510  1860
STARLINK-6242           
1 56424U 23061BC  23134.25001157  .00082384  00000+0  62608-3 0  9996
2 56424  43.0018  51.5027 0001687 280.2393 190.3585 15.71332802  1866
STARLINK-6224           
1 56425U 23061BD  23134.25001157  .00079098  00000+0  60160-3 0  9996
2 56425  43.0013  51.5038 0001619 274.2158 195.7929 15.71328300  1860
STARLINK-5352           
1 56426U 23061BE  23134.33335648  .00004609  00000+0  38547-4 0  9992
2 56426  43.0015  50.9960 0001593 282.9375 300.8919 15.71370650  1872
STARLINK-5724           
1 56427U 23061BF  23134.25001157  .00098742  00000+0  74864-3 0  9991
2 56427  43.0014  51.5010 0001572 274.5022 196.6984 15.71320313  1861
STARLINK-6238           
1 56428U 23061BG  23134.25001157  .00085850  00000+0  65217-3 0  9990
2 56428  43.0016  51.4983 0001517 276.7653 195.6238 15.71326978  1869
STARLINK-6264           
1 56429U 23061BH  23134.25001157  .00079331  00000+0  60331-3 0  9990
2 56429  43.0012  51.4964 0001565 273.6803 199.3040 15.71329671  1866
FALCON 9 DEB            
1 56430U 23061BJ  23134.05222077  .00288489  38168-4  96213-3 0  9991
2 56430  43.0171  51.9805 0024635  50.2033 310.1005 15.88939420  1557
FALCON 9 DEB            
1 56431U 23061BK  23134.04972671  .00300534  40992-4  97906-3 0  9997
2 56431  43.0148  51.9590 0021396  54.7022 305.5850 15.89523627  1556
FALCON 9 DEB            
1 56432U 23061BL  23134.04335338  .00328582  48108-4  10091-2 0  9990
2 56432  43.0108  51.8990 0019290  42.2585 317.9772 15.90733461  1553
FALCON 9 DEB            
1 56433U 23061BM  23132.97454679  .00311904  43794-4  99057-3 0  9997
2 56433  43.0100  58.5120 0019758  36.2598 323.9612 15.90073920  1389
2023-062A               
1 56442U 23062A   23132.39164498  .00000037  00000+0  00000+0 0  9997
2 56442  32.7369 122.0347 0011318 275.9252 203.2205 15.06507547   653
2023-062B               
1 56443U 23062B   23132.38914748  .00000037  00000+0  00000+0 0  9998
2 56443  32.7407 122.0511 0013555 256.4107 222.0937 15.07350350   647
2023-062C               
1 56444U 23062C   23132.38837921  .00000037  00000+0  00000+0 0  9996
2 56444  32.7442 121.9928 0014557 260.0617 218.2707 15.07592437   610
2023-062D               
1 56445U 23062D   23132.46522553 -.00000045  00000+0  00000+0 0  9998
2 56445  35.4835 123.3854 0014463 270.0926 228.1719 15.05521673   638
TIANZHOU-6              
1 56446U 23063A   23133.24230473  .00035895  00000+0  38322-3 0  9996
2 56446  41.4755   8.3259 0007169 261.2781 250.9086 15.63167637116373
CZ-7 R/B                
1 56447U 23063B   23133.95079757  .01107225  75748-5  62121-3 0  9990
2 56447  41.4792   2.6215 0075540 201.3252 158.4453 16.11604562   537
